satname,norad_id,inclination_deg,eccentricity,mean_motion_rev_per_day,perigee_km,apogee_km,l1,l2
STARLINK-1008,44714,53.053,0.0001341,15.06392714,546.3051963327498,548.162580805063,1 44714U 19074B   25291.19179643 -.00000788  00000+0 -34002-4 0  9997,2 44714  53.0530 106.3145 0001341  87.6162 272.4980 15.06392714327278
STARLINK-1010,44716,53.0464,0.0002773,15.90067829,300.24044877940105,303.945304268922,1 44716U 19074D   25291.33336806  .00287374  00000+0  90581-3 0  9990,2 44716  53.0464  39.4409 0002773  57.7571 305.2148 15.90067829  6114
STARLINK-1011,44717,53.0515,0.0002914,15.78977064,331.3820211477041,335.2934686290255,1 44717U 19074E   25291.33336806  .00320639  00000+0  17095-2 0  9991,2 44717  53.0515  95.3611 0002914 194.1504  28.1088 15.78977064  6073
STARLINK-1012,44718,53.0522,0.0001532,15.064184,546.0942104026717,548.2161199220764,1 44718U 19074F   25290.97062800  .00002386  00000+0  17897-3 0  9998,2 44718  53.0522 107.3090 0001532 106.1199 253.9958 15.06418400327238
STARLINK-1017,44723,53.0497,0.0004557,15.1348245,522.4435329807184,528.7355893685735,1 44723U 19074L   25291.27949623  .00054619  00000+0  30103-2 0  9995,2 44723  53.0497 103.2459 0004557 137.3346 222.8001 15.13482450327327
STARLINK-1019,44724,53.0539,0.0001641,15.06401803,546.0695832169158,548.34248080002,1 44724U 19074M   25290.96695391  .00001554  00000+0  12317-3 0  9999,2 44724  53.0539 107.3274 0001641  97.3628 262.7548 15.06401803327238
STARLINK-1020,44725,53.0536,0.000132,15.06399473,546.2990268949952,548.1273193406987,1 44725U 19074N   25291.23786781  .00000434  00000+0  47997-4 0  9994,2 44725  53.0536 126.1099 0001320  91.8744 268.2396 15.06399473326995
STARLINK-1031,44736,53.0509,0.0008151,15.44294471,427.8997925541189,439.0040448093541,1 44736U 19074Z   25291.33336806  .00227107  00000+0  47198-2 0  9995,2 44736  53.0509  98.6852 0008151 156.7236 120.6260 15.44294471  5891
STARLINK-1036,44741,53.0521,0.0001529,15.06401347,546.1485444170739,548.2663147436397,1 44741U 19074AE  25291.26736598  .00002395  00000+0  17964-3 0  9994,2 44741  53.0521 125.9779 0001529  95.3558 264.7605 15.06401347327003
STARLINK-1039,44744,53.0495,0.0007519,15.11680727,525.8789874605081,536.2690589972408,1 44744U 19074AH  25291.12047169  .00041900  00000+0  24356-2 0  9998,2 44744  53.0495 145.1479 0007519 104.7316 255.4509 15.11680727326724
STARLINK-1042,44747,53.0473,0.0003348,15.4232434,436.9688715192342,441.5337947470998,1 44747U 19074AL  25290.72765701  .00030157  00000+0  69578-3 0  9993,2 44747  53.0473  56.8222 0003348  81.7358 278.4026 15.42324340327958
STARLINK-1043,44748,53.0517,0.0001478,15.06395751,546.2010121003141,548.2481489835227,1 44748U 19074AM  25291.23971565 -.00000011  00000+0  18153-4 0  9999,2 44748  53.0517 146.1027 0001478  88.1988 271.9171 15.06395751326723
STARLINK-1046,44751,53.052,0.0001422,15.06406603,546.2065390809921,548.1761024554189,1 44751U 19074AQ  25291.12176441  .00003246  00000+0  23669-3 0  9990,2 44751  53.0520 146.6311 0001422  94.6775 265.4376 15.06406603326709
STARLINK-1047,44752,53.0712,0.0004782,15.28832922,476.0207329014911,482.57918560932376,1 44752U 19074AR  25291.22912650  .00014422  00000+0  51926-3 0  9997,2 44752  53.0712  89.6680 0004782 124.9948 235.1501 15.28832922327525
STARLINK-1048,44753,53.0532,0.000132,15.06396795,546.3072335128209,548.1355281253573,1 44753U 19074AS  25291.28026041  .00000274  00000+0  37279-4 0  9990,2 44753  53.0532 105.9180 0001320  92.1188 267.9952 15.06396795327285
STARLINK-1053,44758,53.0407,2.46e-05,15.58429438,392.0354116658327,392.3685123427631,1 44758U 19074AX  25290.12166939  .00086548  00000+0  11105-2 0  9994,2 44758  53.0407  74.8774 0000246  47.8634 312.2398 15.58429438327638
STARLINK-1054,44759,53.038,0.0001873,15.81036119,326.25340659572703,328.7653417274869,1 44759U 19074AY  25291.33336806  .00490564  00000+0  23327-2 0  9997,2 44759  53.0380  95.4815 0001873 162.3458 352.7960 15.81036119  6081
STARLINK-1056,44761,53.0365,6.09e-05,15.93483125,292.1381071089518,292.95059609757755,1 44761U 19074BA  25291.33336806  .00421986  80770-4  11583-2 0  9990,2 44761  53.0365  82.4640 0000609  89.0043  55.7923 15.93483125  6074
STARLINK-1060,44765,53.0543,5.63e-05,15.59899605,387.56644436953593,388.3283054701524,1 44765U 19074BE  25291.25203149  .00063699  00000+0  77690-3 0  9996,2 44765  53.0543 115.6831 0000563  40.8786 319.2268 15.59899605327145
STARLINK-1063,44768,53.053,0.0001374,15.0640648,546.2401575796912,548.1432379058315,1 44768U 19074BH  25291.11070332  .00002253  00000+0  17006-3 0  9994,2 44768  53.0530 146.6818 0001374  89.5522 270.5625 15.06406480326717
STARLINK-1067,44771,53.0519,0.0001937,15.06405147,545.8543462093967,548.5372201295968,1 44771U 19074BL  25291.29869478  .00001707  00000+0  13345-3 0  9999,2 44771  53.0519 145.8377 0001937  89.6949 270.4262 15.06405147326735
STARLINK-1068,44772,53.0532,0.0001424,15.06405897,546.2073174805619,548.1796516025606,1 44772U 19074BM  25291.02408717  .00002798  00000+0  20664-3 0  9999,2 44772  53.0532 127.0699 0001424  94.5357 265.5794 15.06405897326961
STARLINK-1112,44925,53.05,0.0003773,15.52173113,407.8212016567568,412.94381847905515,1 44925U 20001M   25291.33336806  .00193088  00000+0  30660-2 0  9993,2 44925  53.0500 227.8740 0003773 106.9137 224.7132 15.52173113  5977
STARLINK-1114,44927,53.0535,0.0001442,15.06401242,546.2091166766231,548.2063861029246,1 44927U 20001P   25291.19547715  .00001012  00000+0  86814-4 0  9991,2 44927  53.0535 266.3033 0001442  89.8024 270.3130 15.06401242318377
STARLINK-1123,44930,53.0538,0.00013,15.0639418,546.3290978260638,548.129693088883,1 44930U 20001S   25291.21021192 -.00001175  00000+0 -60041-4 0  9990,2 44930  53.0538 266.2344 0001300  86.4833 273.6305 15.06394180318374
STARLINK-1144,44933,53.045,0.0012801,15.5675194,388.3917968698943,405.737668345716,1 44933U 20001V   25291.33336806  .00136875  00000+0  18482-2 0  9991,2 44933  53.0450 205.3964 0012801  50.8021  40.7329 15.56751940  6036
STARLINK-1091,44940,53.0371,0.0002058,15.91413397,296.95282824497644,299.7008607633752,1 44940U 20001AC  25291.33336806  .00277970  39916-4  85308-3 0  9996,2 44940  53.0371 185.0833 0002058 152.6129 177.1781 15.91413397  6103
STARLINK-1094,44941,53.0543,0.000114,15.06408082,546.3973009712263,547.9762747948625,1 44941U 20001AD  25291.15677651  .00002240  00000+0  16919-3 0  9998,2 44941  53.0543 246.4746 0001140  94.1688 265.9432 15.06408082318646
STARLINK-1096,44942,52.9912,0.0006022,15.84581098,313.47240734572915,321.5366379956349,1 44942U 20001AE  25291.33336806  .00183137  00000+0  76551-3 0  9996,2 44942  52.9912  12.2152 0006022 357.9426 270.6981 15.84581098  6101
STARLINK-1122,44949,53.056,0.0001729,15.06437906,545.8980112646559,548.2927566230228,1 44949U 20001AM  25291.24520337  .00005485  00000+0  38646-3 0  9999,2 44949  53.0560 246.0742 0001729  87.6929 272.4258 15.06437906318650
STARLINK-1080,44961,53.054,0.0001648,15.06421584,546.0041203361443,548.2866934174508,1 44961U 20001AZ  25290.97800839  .00009314  00000+0  64299-3 0  9998,2 44961  53.0540 227.2824 0001648  80.0678 280.0497 15.06421584318905
STARLINK-1090,44968,53.0537,0.0001173,15.0642144,546.3335125274598,547.9581838836493,1 44968U 20001BG  25291.24707716  .00013279  00000+0  90816-3 0  9995,2 44968  53.0537 226.0695 0001173  90.3722 269.7401 15.06421440318942
STARLINK-1107,44972,53.0095,0.0006481,15.63385615,373.5071237108614,382.2642803372246,1 44972U 20001BL  25291.33336806  .00157117  00000+0  16462-2 0  9992,2 44972  53.0095 145.8290 0006481 172.9193 146.4906 15.63385615  6043
STARLINK-1132,45044,53.0552,0.0001374,15.06493903,545.9722703668676,547.8752770674855,1 45044U 20006A   25291.00747563 -.00023160  00000+0 -15370-2 0  9997,2 45044  53.0552 187.1459 0001374 123.4524 236.6596 15.06493903315231
STARLINK-1131,45047,53.0538,0.0001249,15.06440882,546.2213029443992,547.9512237155795,1 45047U 20006D   25291.18265375  .00033146  00000+0  22312-2 0  9992,2 45047  53.0538 206.9003 0001249  80.9104 279.2026 15.06440882314974
STARLINK-1134,45048,53.0378,0.0011604,15.26115392,479.471352827195,495.4049796730278,1 45048U 20006E   25290.99808847  .00047231  00000+0  18051-2 0  9993,2 45048  53.0378 187.4744 0011604  97.2027 263.0290 15.26115392315234
STARLINK-1156,45054,53.0533,0.0001438,15.06422394,546.1470691507238,548.1387796569834,1 45054U 20006L   25291.15309487  .00017219  00000+0  11713-2 0  9996,2 45054  53.0533 206.4915 0001438  93.4169 266.6985 15.06422394314976
STARLINK-1159,45057,53.0535,0.0001431,15.06438893,546.1013587382258,548.0833593807884,1 45057U 20006P   25291.16782504  .00034952  00000+0  23513-2 0  9999,2 45057  53.0535 206.4245 0001431  94.3830 265.7322 15.06438893314982
STARLINK-1166,45060,53.0546,0.0001509,15.06430377,546.0734373241812,548.163479421517,1 45060U 20006S   25291.17888688  .00018419  00000+0  12512-2 0  9991,2 45060  53.0546 206.3762 0001509  90.5843 269.5319 15.06430377314986
STARLINK-1169,45061,53.0536,0.0001325,15.06423551,546.2217793354739,548.0569775757658,1 45061U 20006T   25291.18624982  .00012316  00000+0  84374-3 0  9994,2 45061  53.0536 206.3435 0001325 104.6121 255.5015 15.06423551314989
STARLINK-1171,45062,53.0538,0.0001641,15.200682,504.50507903327525,506.7643329071734,1 45062U 20006U   25291.33336806  .01760220  00000+0  73490-1 0  9997,2 45062  53.0538 205.3152 0001641  67.3670 280.1003 15.20068200  5858
STARLINK-1133,45064,53.0518,0.0001749,15.06412775,545.961168065035,548.3836412947921,1 45064U 20006W   25290.98538052  .00002989  00000+0  21940-3 0  9991,2 45064  53.0518 187.2402 0001749 101.4578 258.6608 15.06412775315231
STARLINK-1167,45071,53.0538,0.0001179,15.06426698,546.3132446740792,547.9462225698671,1 45071U 20006AD  25291.14387134  .00015681  00000+0  10685-2 0  9997,2 45071  53.0538 186.5328 0001179  95.0872 265.0252 15.06426698315250
